1 50804C 22001B   22205.88868056  .00013895  00000+0  87142-3 0  2052
2 50804  53.2185 341.8929 0001519  58.2404 343.1635 15.08820668    18
1 50804C 22001B   22206.21993056  .00008175  00000+0  51267-3 0  2064
2 50804  53.2185 340.4060 0001500  58.3667 343.2948 15.08828859    19
1 50804C 22001B   22206.56368056  .00003320  00000+0  20820-3 0  2066
2 50804  53.2183 338.8629 0001497  58.4898  51.3698 15.08838157    12
1 50804C 22001B   22206.88173611  .00001111  00000+0  69629-4 0  2069
2 50804  53.2182 337.4352 0001550  59.1822 339.2375 15.08843392    11
1 50804C 22001B   22207.23034722 -.00017501  00000+0 -10975-2 0  2079
2 50804  53.2182 335.8703 0001576  59.5639  73.4857 15.08852927    17
1 50804C 22001B   22207.55048611 -.00001391  00000+0 -87238-4 0  2074
2 50804  53.2182 334.4332 0001590  60.1756  12.7766 15.08831438    13
1 50804C 22001B   22207.84145833  .00013271  00000+0  83229-3 0  2073
2 50804  53.2181 333.1271 0001631  60.4593 153.8578 15.08821093    12
1 50804C 22001B   22208.21784722  .00008495  00000+0  53267-3 0  2083
2 50804  53.2182 331.4375 0001645  60.0396  39.8535 15.08829372    15
1 50804C 22001B   22208.54006944  .00005642  00000+0  35375-3 0  2083
2 50804  53.2183 329.9911 0001650  59.8695 351.2247 15.08838744    12
1 50804C 22001B   22208.88798611  .00001222  00000+0  76610-4 0  2087
2 50804  53.2184 328.4293 0001645  59.7761  82.1670 15.08846979    16
1 50804C 22001B   22209.22270833 -.00019706  00000+0 -12357-2 0  2092
2 50804  53.2185 326.9269 0001631  58.0145 103.0781 15.08858328    13
1 50804C 22001B   22209.55604167 -.00000611  00000+0 -38348-4 0  2094
2 50804  53.2186 325.4305 0001613  56.2979 116.4141 15.08831794    10
1 50804C 22001B   22209.87062500  .00011511  00000+0  72183-3 0  2091
2 50804  53.2187 324.0185 0001602  56.3338  26.0620 15.08825210    14
1 50804C 22001B   22210.20187500  .00008064  00000+0  50567-3 0  2101
2 50804  53.2189 322.5316 0001609  55.9504  26.7068 15.08830766    17
1 50804C 22001B   22210.55326389 -.00016039  00000+0 -10059-2 0  2103
2 50804  53.2190 320.9543 0001651  56.9806 135.3897 15.08850074    17
1 50804C 22001B   22210.88659722 -.00010010  00000+0 -62788-3 0  2109
2 50804  53.2190 319.4581 0001690  57.3902 146.5801 15.08838174    13
1 50804C 22001B   22211.22062500  .00006571  00000+0  41220-3 0  2114
2 50804  53.2190 317.9588 0001708  58.2365 161.1021 15.08818417    11
1 50804C 22001B   22211.54006944  .00003998  00000+0  25076-3 0  2110
2 50804  53.2190 316.5249 0001708  58.2487  97.1820 15.08822425    14
1 50804C 22001B   22211.87687500  .00007408  00000+0  46461-3 0  2110
2 50804  53.2189 315.0132 0001688  58.6137 127.2619 15.08825438    18
1 50804C 22001B   22212.21229167  .00005544  00000+0  34764-3 0  2123
2 50804  53.2188 313.5076 0001674  58.6594 150.1193 15.08830359    19
1 50804C 22001B   22212.53590278  .00003681  00000+0  23085-3 0  2126
2 50804  53.2187 312.0550 0001672  58.7856 108.7440 15.08833171    18
1 50804C 22001B   22212.88520833  .00006791  00000+0  42578-3 0  2127
2 50804  53.2184 310.4871 0001654  58.8372 207.0850 15.08837238    13
1 50804C 22001B   22213.20604167  .00004909  00000+0  30776-3 0  2134
2 50804  53.2183 309.0470 0001635  59.4239 150.1571 15.08841637    15
1 50804C 22001B   22213.54215278  .00004926  00000+0  30882-3 0  2139
2 50804  53.2180 307.5382 0001644  59.8650 176.4159 15.08842730    16
1 50804C 22001B   22213.87895833 -.00006474  00000+0 -40582-3 0  2136
2 50804  53.2177 306.0263 0001599  58.8787 207.8685 15.08856576    19
1 50804C 22001B   22214.19979167 -.00024782  00000+0 -15540-2 0  2143
2 50804  53.2175 304.5861 0001562  59.1635 151.2546 15.08863506    19
1 50804C 22001B   22214.54909722  .00000128  00000+0  80415-5 0  2144
2 50804  53.2173 303.0180 0001536  58.8013 250.0479 15.08826938    13
1 50804C 22001B   22214.88381944  .00005530  00000+0  34682-3 0  2146
2 50804  53.2171 301.5154 0001537  57.3481 270.6289 15.08826471    18
1 50804C 22001B   22215.21715278  .00003162  00000+0  19831-3 0  2154
2 50804  53.2170 300.0190 0001536  56.9600 282.5962 15.08831613    12
1 50804C 22001B   22215.55048611  .00007628  00000+0  47836-3 0  2158
2 50804  53.2169 298.5226 0001550  56.8897 294.2578 15.08830085    19
1 50804C 22001B   22215.89006944  .00005334  00000+0  33445-3 0  2151
2 50804  53.2169 296.9981 0001577  56.2372 340.4631 15.08837287    15
1 50804C 22001B   22216.20673611 -.00002602  00000+0 -16310-3 0  2168
2 50804  53.2169 295.5764 0001572  55.0007 262.7099 15.08847374    18
1 50804C 22001B   22216.56368056 -.00016984  00000+0 -10651-2 0  2160
2 50804  53.2170 293.9740 0001559  53.8685  43.7680 15.08852094    17
1 50804C 22001B   22216.89493056 -.00002311  00000+0 -14497-3 0  2167
2 50804  53.2171 292.4868 0001542  52.4348  45.4879 15.08831803    10
1 50804C 22001B   22217.22131944  .00004063  00000+0  25481-3 0  2170
2 50804  53.2172 291.0215 0001563  52.2220  19.5425 15.08830056    10
1 50804C 22001B   22217.55048611  .00009787  00000+0  61376-3 0  2175
2 50804  53.2174 289.5438 0001573  51.8628   8.8464 15.08827397    17
1 50804C 22001B   22217.88034722  .00005311  00000+0  33299-3 0  2171
2 50804  53.2176 288.0630 0001595  51.4855   1.9363 15.08836481    15
1 50804C 22001B   22218.21854167 -.00010927  00000+0 -68514-3 0  2182
2 50804  53.2177 286.5448 0001593  51.4465  39.9807 15.08853962    18
1 50804C 22001B   22218.56090278 -.00014407  00000+0 -90352-3 0  2187
2 50804  53.2179 285.0079 0001570  49.7239 102.3769 15.08847657    14
1 50804C 22001B   22218.88451389  .00001918  00000+0  12033-3 0  2187
2 50804  53.2180 283.5552 0001529  48.5118  62.3562 15.08826012    10
1 50804C 22001B   22219.21368056  .00001048  00000+0  65709-4 0  2197
2 50804  53.2180 282.0776 0001532  48.7428  51.0563 15.08830740    11
1 50804C 22001B   22219.55395833  .00010803  00000+0  67746-3 0  2198
2 50804  53.2180 280.5502 0001534  48.3880 100.7422 15.08826474    16
1 50804C 22001B   22219.88937500  .00008456  00000+0  53013-3 0  2190
2 50804  53.2180 279.0446 0001524  48.3418 123.6952 15.08838440    10
1 50804C 22001B   22220.21576389 -.00000890  00000+0 -55771-4 0  2205
2 50804  53.2178 277.5795 0001528  49.3486  96.5382 15.08855622    13
1 50804C 22001B   22220.55673611 -.00008508  00000+0 -53333-3 0  2203
2 50804  53.2177 276.0490 0001576  50.0313 148.9864 15.08861404    11
1 50804C 22001B   22220.87687500 -.00015596  00000+0 -97792-3 0  2202
2 50804  53.2175 274.6120 0001566  50.1736  88.7517 15.08856126    13
1 50804C 22001B   22221.21993056 -.00021985  00000+0 -13790-2 0  2212
2 50804  53.2172 273.0720 0001555  50.5079 152.8584 15.08851200    16
1 50804C 22001B   22221.55951389  .00010477  00000+0  65723-3 0  2218
2 50804  53.2169 271.5477 0001546  49.6801 199.2645 15.08813267    10
1 50804C 22001B   22221.88729167  .00006408  00000+0  40197-3 0  2218
2 50804  53.2166 270.0765 0001542  49.3023 181.0176 15.08822055    13
1 50804C 22001B   22222.23381944  .00000299  00000+0  18757-4 0  2226
2 50804  53.2163 268.5210 0001548  49.3841 264.2165 15.08831487    12
1 50804C 22001B   22222.55118056  .00010083  00000+0  63234-3 0  2224
2 50804  53.2161 267.0964 0001577  49.4505 188.9336 15.08823089    11
1 50804C 22001B   22222.88034722  .00004071  00000+0  25528-3 0  2221
2 50804  53.2159 265.6188 0001596  49.1246 178.1950 15.08832070    13
1 50804C 22001B   22223.21020833 -.00000083  00000+0 -51869-5 0  2238
2 50804  53.2157 264.1380 0001612  49.1229 170.9103 15.08839740    10
1 50804C 22001B   22223.54076389  .00010652  00000+0  66784-3 0  2232
2 50804  53.2156 262.6541 0001652  48.9229 167.6128 15.08832384    19
1 50804C 22001B   22223.89076389  .00003790  00000+0  23758-3 0  2239
2 50804  53.2155 261.0828 0001676  48.2952 270.4126 15.08843967    11
1 50804C 22001B   22224.20395833 -.00020975  00000+0 -13151-2 0  2245
2 50804  53.2155 259.6767 0001658  47.7282 173.1224 15.08865751    19
1 50804C 22001B   22224.56298611 -.00001967  00000+0 -12337-3 0  2246
2 50804  53.2156 258.0648 0001662  46.7036 325.4150 15.08837225    17
1 50804C 22001B   22224.88034722  .00006014  00000+0  37717-3 0  2247
2 50804  53.2157 256.6400 0001685  45.6488 251.2608 15.08828172    17
1 50804C 22001B   22225.21715278 -.00000042  00000+0 -26136-5 0  2250
2 50804  53.2158 255.1278 0001707  45.7598 281.6006 15.08836694    10
1 50804C 22001B   22225.55048611  .00004239  00000+0  26578-3 0  2255
2 50804  53.2160 253.6314 0001733  45.3648 293.5873 15.08835297    10
1 50804C 22001B   22225.88451389 -.00017942  00000+0 -11252-2 0  2250
2 50804  53.2161 252.1318 0001716  44.5249 309.7900 15.08852239    14
1 50804C 22001B   22226.21159722 -.00014650  00000+0 -91898-3 0  2263
2 50804  53.2163 250.6633 0001695  44.5996 287.3506 15.08839714    10
1 50804C 22001B   22226.54562500  .00009887  00000+0  62024-3 0  2264
2 50804  53.2164 249.1638 0001704  43.7299 303.5887 15.08814639    19
1 50804C 22001B   22226.88312500  .00005470  00000+0  34311-3 0  2266
2 50804  53.2166 247.6486 0001707  43.6738 337.8614 15.08821847    12
1 50804C 22001B   22227.21923611 -.00001712  00000+0 -10740-3 0  2273
2 50804  53.2166 246.1397 0001708  44.1333   4.0718 15.08830009    13
1 50804C 22001B   22227.55395833  .00008895  00000+0  55788-3 0  2277
2 50804  53.2166 244.6371 0001723  44.4622  22.8752 15.08823516    10
1 50804C 22001B   22227.88659722  .00004621  00000+0  28979-3 0  2278
2 50804  53.2167 243.1438 0001721  44.4412  30.7041 15.08829426    19
1 50804C 22001B   22228.22270833 -.00001510  00000+0 -94727-4 0  2281
2 50804  53.2167 241.6350 0001721  44.9983  56.8275 15.08836584    14
1 50804C 22001B   22228.54631944  .00008455  00000+0  53016-3 0  2288
2 50804  53.2166 240.1823 0001743  45.8058  14.7735 15.08830859    12
1 50804C 22001B   22228.88451389  .00003637  00000+0  22807-3 0  2289
2 50804  53.2166 238.6642 0001748  45.8559  52.7324 15.08835882    11
